{"type": "FeatureCollection", "features": [ {"type": "Feature", "properties": {"norad_id": 44506, "name": "GPS BIII-2  (PRN 18)", "group": "gnss", "lat": -27.159257820080665, "lon": -42.1737028480254, "alt_km": 20278.94723674787, "timestamp": "2025-12-18T14:52:08.268761+00:00", "meta": {"OBJECT_NAME": "GPS BIII-2  (PRN 18)", "OBJECT_ID": "2019-056A", "EPOCH": "2025-12-18T07:32:42.973728", "MEAN_MOTION": 2.00566635, "ECCENTRICITY": 0.00577192, "INCLINATION": 55.7194, "RA_OF_ASC_NODE": 338.3313, "ARG_OF_PERICENTER": 198.5145, "MEAN_ANOMALY": 267.0868, "EPHEMERIS_TYPE": 0, "CLASSIFICATION_TYPE": "U", "NORAD_CAT_ID": 44506, "ELEMENT_SET_NO": 999, "REV_AT_EPOCH": 4644, "BSTAR": 0, "MEAN_MOTION_DOT": -8.5e-07, "MEAN_MOTION_DDOT": 0}, "tle": {"line1": "1 44506U 19056A   25352.31438627 -.00000085  00000+0  00000+0 0  9993", "line2": "2 44506  55.7194 338.3313 0057719 198.5145 267.0868  2.00566635 46446"}}, "geometry": {"type": "Point", "coordinates": [-42.1737028480254, -27.159257820080665]}}, {"type": "Feature", "properties": {"norad_id": 44542, "name": "BEIDOU-3 M24 (C46)", "group": "gnss", "lat": -32.899049529143575, "lon": 36.448968201154955, "alt_km": 21557.94478884215, "timestamp": "2025-12-18T14:52:08.268772+00:00", "meta": {"OBJECT_NAME": "BEIDOU-3 M24 (C46)", "OBJECT_ID": "2019-061A", "EPOCH": "2025-12-16T03:22:44.327712", "MEAN_MOTION": 1.86229353, "ECCENTRICITY": 0.00096014, "INCLINATION": 54.4001, "RA_OF_ASC_NODE": 188.9011, "ARG_OF_PERICENTER": 24.8001, "MEAN_ANOMALY": 335.316, "EPHEMERIS_TYPE": 0, "CLASSIFICATION_TYPE": "U", "NORAD_CAT_ID": 44542, "ELEMENT_SET_NO": 999, "REV_AT_EPOCH": 4238, "BSTAR": 0, "MEAN_MOTION_DOT": 1.15e-06, "MEAN_MOTION_DDOT": 0}, "tle": {"line1": "1 44542U 19061A   25350.14079083  .00000115  00000+0  00000+0 0  9998", "line2": "2 44542  54.4001 188.9011 0009601  24.8001 335.3160  1.86229353 42381"}}, "geometry": {"type": "Point", "coordinates": [36.448968201154955, -32.899049529143575]}}, {"type": "Feature", "properties": {"norad_id": 44543, "name": "BEIDOU-3 M23 (C45)", "group": "gnss", "lat": 35.24895752247538, "lon": -21.642409383420635, "alt_km": 21529.867440045196, "timestamp": "2025-12-18T14:52:08.268783+00:00", "meta": {"OBJECT_NAME": "BEIDOU-3 M23 (C45)", "OBJECT_ID": "2019-061B", "EPOCH": "2025-12-18T04:28:40.463616", "MEAN_MOTION": 1.86227759, "ECCENTRICITY": 0.00060655, "INCLINATION": 54.3991, "RA_OF_ASC_NODE": 188.8006, "ARG_OF_PERICENTER": 24.5513, "MEAN_ANOMALY": 179.8901, "EPHEMERIS_TYPE": 0, "CLASSIFICATION_TYPE": "U", "NORAD_CAT_ID": 44543, "ELEMENT_SET_NO": 999, "REV_AT_EPOCH": 4242, "BSTAR": 0, "MEAN_MOTION_DOT": 1.09e-06, "MEAN_MOTION_DDOT": 0}, "tle": {"line1": "1 44543U 19061B   25352.18657944  .00000109  00000+0  00000+0 0  9996", "line2": "2 44543  54.3991 188.8006 0006065  24.5513 179.8901  1.86227759 42425"}}, "geometry": {"type": "Point", "coordinates": [-21.642409383420635, 35.24895752247538]}}, {"type": "Feature", "properties": {"norad_id": 44624, "name": "EUTELSAT 5 WEST B (EGNOS/PRN 121)", "group": "gnss", "lat": -0.04572429458667712, "lon": -54.46746014183678, "alt_km": 35776.22442521504, "timestamp": "2025-12-18T14:52:08.268798+00:00", "meta": {"OBJECT_NAME": "EUTELSAT 5 WEST B (EGNOS/PRN 121)", "OBJECT_ID": "2019-067A", "EPOCH": "2025-12-18T03:51:38.597760", "MEAN_MOTION": 1.00271226, "ECCENTRICITY": 0.00030101, "INCLINATION": 0.0701, "RA_OF_ASC_NODE": 330.5197, "ARG_OF_PERICENTER": 296.7248, "MEAN_ANOMALY": 232.7035, "EPHEMERIS_TYPE": 0, "CLASSIFICATION_TYPE": "U", "NORAD_CAT_ID": 44624, "ELEMENT_SET_NO": 999, "REV_AT_EPOCH": 2262, "BSTAR": 0, "MEAN_MOTION_DOT": -1.7e-07, "MEAN_MOTION_DDOT": 0}, "tle": {"line1": "1 44624U 19067A   25352.16086340 -.00000017  00000+0  00000+0 0  9995", "line2": "2 44624   0.0701 330.5197 0003010 296.7248 232.7035  1.00271226 22625"}}, "geometry": {"type": "Point", "coordinates": [-54.46746014183678, -0.04572429458667712]}}, {"type": "Feature", "properties": {"norad_id": 44709, "name": "BEIDOU-3 IGSO-3 (C40)", "group": "gnss", "lat": 31.941141317766427, "lon": 77.09990894969488, "alt_km": 35673.76690050493, "timestamp": "2025-12-18T14:52:08.268810+00:00", "meta": {"OBJECT_NAME": "BEIDOU-3 IGSO-3 (C40)", "OBJECT_ID": "2019-073A", "EPOCH": "2025-11-20T07:11:22.740000", "MEAN_MOTION": 1.00250097, "ECCENTRICITY": 0.0044538, "INCLINATION": 55.163, "RA_OF_ASC_NODE": 283.159, "ARG_OF_PERICENTER": 191.5856, "MEAN_ANOMALY": 168.2409, "EPHEMERIS_TYPE": 0, "CLASSIFICATION_TYPE": "U", "NORAD_CAT_ID": 44709, "ELEMENT_SET_NO": 999, "REV_AT_EPOCH": 2236, "BSTAR": 0, "MEAN_MOTION_DOT": -2.06e-06, "MEAN_MOTION_DDOT": 0}, "tle": {"line1": "1 44709U 19073A   25324.29956875 -.00000206  00000+0  00000+0 0  9998", "line2": "2 44709  55.1630 283.1590 0044538 191.5856 168.2409  1.00250097 22360"}}, "geometry": {"type": "Point", "coordinates": [77.09990894969488, 31.941141317766427]}}, {"type": "Feature", "properties": {"norad_id": 44793, "name": "BEIDOU-3 M22 (C44)", "group": "gnss", "lat": -24.55945704819039, "lon": -73.15499311467369, "alt_km": 21521.60775503824, "timestamp": "2025-12-18T14:52:08.268828+00:00", "meta": {"OBJECT_NAME": "BEIDOU-3 M22 (C44)", "OBJECT_ID": "2019-078A", "EPOCH": "2025-12-17T14:11:57.933600", "MEAN_MOTION": 1.86232151, "ECCENTRICITY": 0.00059947, "INCLINATION": 54.1037, "RA_OF_ASC_NODE": 306.2155, "ARG_OF_PERICENTER": 24.2976, "MEAN_ANOMALY": 335.7178, "EPHEMERIS_TYPE": 0, "CLASSIFICATION_TYPE": "U", "NORAD_CAT_ID": 44793, "ELEMENT_SET_NO": 999, "REV_AT_EPOCH": 4126, "BSTAR": 0, "MEAN_MOTION_DOT": -8.9e-07, "MEAN_MOTION_DDOT": 0}, "tle": {"line1": "1 44793U 19078A   25351.59164275 -.00000089  00000+0  00000+0 0  9993", "line2": "2 44793  54.1037 306.2155 0005994  24.2976 335.7178  1.86232151 41264"}}, "geometry": {"type": "Point", "coordinates": [-73.15499311467369, -24.55945704819039]}}, {"type": "Feature", "properties": {"norad_id": 44794, "name": "BEIDOU-3 M21 (C43)", "group": "gnss", "lat": -42.64922720290822, "lon": 167.9714819399606, "alt_km": 21541.468074824523, "timestamp": "2025-12-18T14:52:08.268839+00:00", "meta": {"OBJECT_NAME": "BEIDOU-3 M21 (C43)", "OBJECT_ID": "2019-078B", "EPOCH": "2025-12-16T15:43:55.727904", "MEAN_MOTION": 1.86227668, "ECCENTRICITY": 0.00041169, "INCLINATION": 54.078, "RA_OF_ASC_NODE": 306.2132, "ARG_OF_PERICENTER": 11.942, "MEAN_ANOMALY": 348.0544, "EPHEMERIS_TYPE": 0, "CLASSIFICATION_TYPE": "U", "NORAD_CAT_ID": 44794, "ELEMENT_SET_NO": 999, "REV_AT_EPOCH": 4125, "BSTAR": 0, "MEAN_MOTION_DOT": -9.5e-07, "MEAN_MOTION_DDOT": 0}, "tle": {"line1": "1 44794U 19078B   25350.65550611 -.00000095  00000+0  00000+0 0  9990", "line2": "2 44794  54.0780 306.2132 0004116  11.9420 348.0544  1.86227668 41256"}}, "geometry": {"type": "Point", "coordinates": [167.9714819399606, -42.64922720290822]}}, {"type": "Feature", "properties": {"norad_id": 44850, "name": "COSMOS 2544 (759)", "group": "gnss", "lat": -14.59781542874552, "lon": -93.40867995651045, "alt_km": 19111.271564459676, "timestamp": "2025-12-18T14:52:08.268850+00:00", "meta": {"OBJECT_NAME": "COSMOS 2544 (759)", "OBJECT_ID": "2019-088A", "EPOCH": "2025-12-16T11:40:43.010688", "MEAN_MOTION": 2.13101965, "ECCENTRICITY": 0.00138869, "INCLINATION": 65.4623, "RA_OF_ASC_NODE": 79.8328, "ARG_OF_PERICENTER": 249.7945, "MEAN_ANOMALY": 110.0707, "EPHEMERIS_TYPE": 0, "CLASSIFICATION_TYPE": "U", "NORAD_CAT_ID": 44850, "ELEMENT_SET_NO": 999, "REV_AT_EPOCH": 4682, "BSTAR": 0, "MEAN_MOTION_DOT": -5.3e-07, "MEAN_MOTION_DDOT": 0}, "tle": {"line1": "1 44850U 19088A   25350.48660892 -.00000053  00000+0  00000+0 0  9992", "line2": "2 44850  65.4623  79.8328 0013886 249.7945 110.0707  2.13101965 46826"}}, "geometry": {"type": "Point", "coordinates": [-93.40867995651045, -14.59781542874552]}}, {"type": "Feature", "properties": {"norad_id": 44864, "name": "BEIDOU-3 M19 (C41)", "group": "gnss", "lat": 52.68782432006671, "lon": 129.357081745542, "alt_km": 21564.586385784733, "timestamp": "2025-12-18T14:52:08.268862+00:00", "meta": {"OBJECT_NAME": "BEIDOU-3 M19 (C41)", "OBJECT_ID": "2019-090A", "EPOCH": "2025-12-16T21:16:08.319360", "MEAN_MOTION": 1.86231655, "ECCENTRICITY": 0.00181701, "INCLINATION": 56.3969, "RA_OF_ASC_NODE": 68.8236, "ARG_OF_PERICENTER": 285.0658, "MEAN_ANOMALY": 65.3992, "EPHEMERIS_TYPE": 0, "CLASSIFICATION_TYPE": "U", "NORAD_CAT_ID": 44864, "ELEMENT_SET_NO": 999, "REV_AT_EPOCH": 4083, "BSTAR": 0, "MEAN_MOTION_DOT": -7.7e-07, "MEAN_MOTION_DDOT": 0}, "tle": {"line1": "1 44864U 19090A   25350.88620740 -.00000077  00000+0  00000+0 0  9998", "line2": "2 44864  56.3969  68.8236 0018170 285.0658  65.3992  1.86231655 40836"}}, "geometry": {"type": "Point", "coordinates": [129.357081745542, 52.68782432006671]}}, {"type": "Feature", "properties": {"norad_id": 44865, "name": "BEIDOU-3 M20 (C42)", "group": "gnss", "lat": 14.845231865829458, "lon": -121.31914908026634, "alt_km": 21556.421240817617, "timestamp": "2025-12-18T14:52:08.268879+00:00", "meta": {"OBJECT_NAME": "BEIDOU-3 M20 (C42)", "OBJECT_ID": "2019-090B", "EPOCH": "2025-12-14T14:16:43.218624", "MEAN_MOTION": 1.86231589, "ECCENTRICITY": 0.00151163, "INCLINATION": 56.3967, "RA_OF_ASC_NODE": 68.9336, "ARG_OF_PERICENTER": 297.6834, "MEAN_ANOMALY": 46.2212, "EPHEMERIS_TYPE": 0, "CLASSIFICATION_TYPE": "U", "NORAD_CAT_ID": 44865, "ELEMENT_SET_NO": 999, "REV_AT_EPOCH": 4077, "BSTAR": 0, "MEAN_MOTION_DOT": -8.3e-07, "MEAN_MOTION_DDOT": 0}, "tle": {"line1": "1 44865U 19090B   25348.59494466 -.00000083  00000+0  00000+0 0  9995", "line2": "2 44865  56.3967  68.9336 0015116 297.6834  46.2212  1.86231589 40771"}}, "geometry": {"type": "Point", "coordinates": [-121.31914908026634, 14.845231865829458]}}]}